SKYNET 4C               
1 20776U 90079A   22253.96512178  .00000112  00000+0  00000+0 0  9992
2 20776  13.7809 359.4060 0003387 170.8643 200.5772  1.00276020117100
SKYNET 4E               
1 25639U 99009B   22255.10614946 -.00000049  00000+0  00000+0 0  9991
2 25639  11.2901  16.4455 0003416 157.7932 213.5273  1.00273808 86246
SKYNET 4F             
1 26695U 01005B   22255.44244847 -.00000111  00000-0  00000-0 0  9991
2 26695  10.7326  25.8229 0006203 139.9739 264.0210  0.99146171 78995
SKYNET 5A               
1 30794U 07007B   22255.89578230 -.00000285  00000+0  00000+0 0  9999
2 30794   2.0169  88.5667 0003639  97.7772 223.1913  1.00268210 56926
SKYNET 5B               
1 32294U 07056B   22255.82892181  .00000127  00000+0  00000+0 0  9991
2 32294   1.7408  88.6205 0003703  84.0319 142.6810  1.00273874 54428
SKYNET 5C               
1 33055U 08030A   22255.82037618 -.00000154  00000+0  00000+0 0  9997
2 33055   0.2596  81.7238 0005216 102.1203  85.4884  1.00272343 52187
SKYNET 5D               
1 39034U 12075A   22254.97345782  .00000081  00000+0  00000+0 0  9991
2 39034   0.0756 359.6344 0004167 183.7792 210.7141  1.00269981 35378